IRIDIUM 144             
1 43249U 18030A   24266.56967758  .00000700  00000+0  24274-3 0  9995
2 43249  86.4036 194.7923 0002369  88.5262 271.6205 14.34218728339465
IRIDIUM 149             
1 43250U 18030B   24266.50622950 -.00000315  00000+0 -11956-3 0  9990
2 43250  86.4038 194.7930 0002352  83.6266 276.5198 14.34213598339475
IRIDIUM 157             
1 43251U 18030C   24266.52527334  .00000197  00000+0  63385-4 0  9993
2 43251  86.4040 194.8239 0002502  77.8516 282.2960 14.34212498339459
IRIDIUM 140             
1 43252U 18030D   24266.82336739  .00000541  00000+0  18604-3 0  9990
2 43252  86.4038 194.7140 0002076  87.3657 272.7777 14.34215417339550
IRIDIUM 145             
1 43253U 18030E   24266.53160996  .00000632  00000+0  21859-3 0  9996
2 43253  86.4037 194.8088 0002450  93.9928 266.1548 14.34220654339442
IRIDIUM 146             
1 43254U 18030F   24266.51258802  .00000685  00000+0  23756-3 0  9995
2 43254  86.4036 194.8315 0002290  90.4921 269.6537 14.34219443339453
IRIDIUM 148             
1 43255U 18030G   24266.55064193  .00000681  00000+0  23625-3 0  9999
2 43255  86.4040 194.8488 0002473  86.4607 273.6872 14.34216929339508
IRIDIUM 142             
1 43256U 18030H   24266.30962621  .00000651  00000+0  22542-3 0  9990
2 43256  86.4034 194.8615 0002561  91.7133 268.4356 14.34212622339421
