<?xml version="1.0" encoding="UTF-8"?>
<ndm xmlns:xsi="http://www.w3.org/2001/XMLSchema-instance" xsi:noNamespaceSchemaLocation="https://sanaregistry.org/r/ndmxml_unqualified/ndmxml-2.0.0-master-2.0.xsd">
<omm id="CCSDS_OMM_VERS" version="2.0">
<header><CREATION_DATE/><ORIGINATOR/></header><body><segment><metadata><OBJECT_NAME>IRIDIUM 144</OBJECT_NAME><OBJECT_ID>2018-030A</OBJECT_ID><CENTER_NAME>EARTH</CENTER_NAME><REF_FRAME>TEME</REF_FRAME><TIME_SYSTEM>UTC</TIME_SYSTEM><MEAN_ELEMENT_THEORY>SGP4</MEAN_ELEMENT_THEORY></metadata><data><meanElements><EPOCH>2024-09-22T13:40:20.142912</EPOCH><MEAN_MOTION>14.34218728</MEAN_MOTION><ECCENTRICITY>.0002369</ECCENTRICITY><INCLINATION>86.4036</INCLINATION><RA_OF_ASC_NODE>194.7923</RA_OF_ASC_NODE><ARG_OF_PERICENTER>88.5262</ARG_OF_PERICENTER><MEAN_ANOMALY>271.6205</MEAN_ANOMALY></meanElements><tleParameters><EPHEMERIS_TYPE>0</EPHEMERIS_TYPE><CLASSIFICATION_TYPE>U</CLASSIFICATION_TYPE><NORAD_CAT_ID>43249</NORAD_CAT_ID><ELEMENT_SET_NO>999</ELEMENT_SET_NO><REV_AT_EPOCH>33946</REV_AT_EPOCH><BSTAR>.24274E-3</BSTAR><MEAN_MOTION_DOT>.7E-5</MEAN_MOTION_DOT><MEAN_MOTION_DDOT>0</MEAN_MOTION_DDOT></tleParameters></data></segment></body></omm>
<omm id="CCSDS_OMM_VERS" version="2.0">
<header><CREATION_DATE/><ORIGINATOR/></header><body><segment><metadata><OBJECT_NAME>IRIDIUM 149</OBJECT_NAME><OBJECT_ID>2018-030B</OBJECT_ID><CENTER_NAME>EARTH</CENTER_NAME><REF_FRAME>TEME</REF_FRAME><TIME_SYSTEM>UTC</TIME_SYSTEM><MEAN_ELEMENT_THEORY>SGP4</MEAN_ELEMENT_THEORY></metadata><data><meanElements><EPOCH>2024-09-22T12:08:58.228800</EPOCH><MEAN_MOTION>14.34213598</MEAN_MOTION><ECCENTRICITY>.0002352</ECCENTRICITY><INCLINATION>86.4038</INCLINATION><RA_OF_ASC_NODE>194.7930</RA_OF_ASC_NODE><ARG_OF_PERICENTER>83.6266</ARG_OF_PERICENTER><MEAN_ANOMALY>276.5198</MEAN_ANOMALY></meanElements><tleParameters><EPHEMERIS_TYPE>0</EPHEMERIS_TYPE><CLASSIFICATION_TYPE>U</CLASSIFICATION_TYPE><NORAD_CAT_ID>43250</NORAD_CAT_ID><ELEMENT_SET_NO>999</ELEMENT_SET_NO><REV_AT_EPOCH>33947</REV_AT_EPOCH><BSTAR>-.11956E-3</BSTAR><MEAN_MOTION_DOT>-.315E-5</MEAN_MOTION_DOT><MEAN_MOTION_DDOT>0</MEAN_MOTION_DDOT></tleParameters></data></segment></body></omm>
<omm id="CCSDS_OMM_VERS" version="2.0">
<header><CREATION_DATE/><ORIGINATOR/></header><body><segment><metadata><OBJECT_NAME>IRIDIUM 157</OBJECT_NAME><OBJECT_ID>2018-030C</OBJECT_ID><CENTER_NAME>EARTH</CENTER_NAME><REF_FRAME>TEME</REF_FRAME><TIME_SYSTEM>UTC</TIME_SYSTEM><MEAN_ELEMENT_THEORY>SGP4</MEAN_ELEMENT_THEORY></metadata><data><meanElements><EPOCH>2024-09-22T12:36:23.616576</EPOCH><MEAN_MOTION>14.34212498</MEAN_MOTION><ECCENTRICITY>.0002502</ECCENTRICITY><INCLINATION>86.4040</INCLINATION><RA_OF_ASC_NODE>194.8239</RA_OF_ASC_NODE><ARG_OF_PERICENTER>77.8516</ARG_OF_PERICENTER><MEAN_ANOMALY>282.2960</MEAN_ANOMALY></meanElements><tleParameters><EPHEMERIS_TYPE>0</EPHEMERIS_TYPE><CLASSIFICATION_TYPE>U</CLASSIFICATION_TYPE><NORAD_CAT_ID>43251</NORAD_CAT_ID><ELEMENT_SET_NO>999</ELEMENT_SET_NO><REV_AT_EPOCH>33945</REV_AT_EPOCH><BSTAR>.63385E-4</BSTAR><MEAN_MOTION_DOT>.197E-5</MEAN_MOTION_DOT><MEAN_MOTION_DDOT>0</MEAN_MOTION_DDOT></tleParameters></data></segment></body></omm>
<omm id="CCSDS_OMM_VERS" version="2.0">
<header><CREATION_DATE/><ORIGINATOR/></header><body><segment><metadata><OBJECT_NAME>IRIDIUM 140</OBJECT_NAME><OBJECT_ID>2018-030D</OBJECT_ID><CENTER_NAME>EARTH</CENTER_NAME><REF_FRAME>TEME</REF_FRAME><TIME_SYSTEM>UTC</TIME_SYSTEM><MEAN_ELEMENT_THEORY>SGP4</MEAN_ELEMENT_THEORY></metadata><data><meanElements><EPOCH>2024-09-22T19:45:38.942496</EPOCH><MEAN_MOTION>14.34215417</MEAN_MOTION><ECCENTRICITY>.0002076</ECCENTRICITY><INCLINATION>86.4038</INCLINATION><RA_OF_ASC_NODE>194.7140</RA_OF_ASC_NODE><ARG_OF_PERICENTER>87.3657</ARG_OF_PERICENTER><MEAN_ANOMALY>272.7777</MEAN_ANOMALY></meanElements><tleParameters><EPHEMERIS_TYPE>0</EPHEMERIS_TYPE><CLASSIFICATION_TYPE>U</CLASSIFICATION_TYPE><NORAD_CAT_ID>43252</NORAD_CAT_ID><ELEMENT_SET_NO>999</ELEMENT_SET_NO><REV_AT_EPOCH>33955</REV_AT_EPOCH><BSTAR>.18604E-3</BSTAR><MEAN_MOTION_DOT>.541E-5</MEAN_MOTION_DOT><MEAN_MOTION_DDOT>0</MEAN_MOTION_DDOT></tleParameters></data></segment></body></omm>
<omm id="CCSDS_OMM_VERS" version="2.0">
<header><CREATION_DATE/><ORIGINATOR/></header><body><segment><metadata><OBJECT_NAME>IRIDIUM 145</OBJECT_NAME><OBJECT_ID>2018-030E</OBJECT_ID><CENTER_NAME>EARTH</CENTER_NAME><REF_FRAME>TEME</REF_FRAME><TIME_SYSTEM>UTC</TIME_SYSTEM><MEAN_ELEMENT_THEORY>SGP4</MEAN_ELEMENT_THEORY></metadata><data><meanElements><EPOCH>2024-09-22T12:45:31.100544</EPOCH><MEAN_MOTION>14.34220654</MEAN_MOTION><ECCENTRICITY>.000245</ECCENTRICITY><INCLINATION>86.4037</INCLINATION><RA_OF_ASC_NODE>194.8088</RA_OF_ASC_NODE><ARG_OF_PERICENTER>93.9928</ARG_OF_PERICENTER><MEAN_ANOMALY>266.1548</MEAN_ANOMALY></meanElements><tleParameters><EPHEMERIS_TYPE>0</EPHEMERIS_TYPE><CLASSIFICATION_TYPE>U</CLASSIFICATION_TYPE><NORAD_CAT_ID>43253</NORAD_CAT_ID><ELEMENT_SET_NO>999</ELEMENT_SET_NO><REV_AT_EPOCH>33944</REV_AT_EPOCH><BSTAR>.21859E-3</BSTAR><MEAN_MOTION_DOT>.632E-5</MEAN_MOTION_DOT><MEAN_MOTION_DDOT>0</MEAN_MOTION_DDOT></tleParameters></data></segment></body></omm>
<omm id="CCSDS_OMM_VERS" version="2.0">
<header><CREATION_DATE/><ORIGINATOR/></header><body><segment><metadata><OBJECT_NAME>IRIDIUM 146</OBJECT_NAME><OBJECT_ID>2018-030F</OBJECT_ID><CENTER_NAME>EARTH</CENTER_NAME><REF_FRAME>TEME</REF_FRAME><TIME_SYSTEM>UTC</TIME_SYSTEM><MEAN_ELEMENT_THEORY>SGP4</MEAN_ELEMENT_THEORY></metadata><data><meanElements><EPOCH>2024-09-22T12:18:07.604928</EPOCH><MEAN_MOTION>14.34219443</MEAN_MOTION><ECCENTRICITY>.000229</ECCENTRICITY><INCLINATION>86.4036</INCLINATION><RA_OF_ASC_NODE>194.8315</RA_OF_ASC_NODE><ARG_OF_PERICENTER>90.4921</ARG_OF_PERICENTER><MEAN_ANOMALY>269.6537</MEAN_ANOMALY></meanElements><tleParameters><EPHEMERIS_TYPE>0</EPHEMERIS_TYPE><CLASSIFICATION_TYPE>U</CLASSIFICATION_TYPE><NORAD_CAT_ID>43254</NORAD_CAT_ID><ELEMENT_SET_NO>999</ELEMENT_SET_NO><REV_AT_EPOCH>33945</REV_AT_EPOCH><BSTAR>.23756E-3</BSTAR><MEAN_MOTION_DOT>.685E-5</MEAN_MOTION_DOT><MEAN_MOTION_DDOT>0</MEAN_MOTION_DDOT></tleParameters></data></segment></body></omm>
<omm id="CCSDS_OMM_VERS" version="2.0">
<header><CREATION_DATE/><ORIGINATOR/></header><body><segment><metadata><OBJECT_NAME>IRIDIUM 148</OBJECT_NAME><OBJECT_ID>2018-030G</OBJECT_ID><CENTER_NAME>EARTH</CENTER_NAME><REF_FRAME>TEME</REF_FRAME><TIME_SYSTEM>UTC</TIME_SYSTEM><MEAN_ELEMENT_THEORY>SGP4</MEAN_ELEMENT_THEORY></metadata><data><meanElements><EPOCH>2024-09-22T13:12:55.462752</EPOCH><MEAN_MOTION>14.34216929</MEAN_MOTION><ECCENTRICITY>.0002473</ECCENTRICITY><INCLINATION>86.4040</INCLINATION><RA_OF_ASC_NODE>194.8488</RA_OF_ASC_NODE><ARG_OF_PERICENTER>86.4607</ARG_OF_PERICENTER><MEAN_ANOMALY>273.6872</MEAN_ANOMALY></meanElements><tleParameters><EPHEMERIS_TYPE>0</EPHEMERIS_TYPE><CLASSIFICATION_TYPE>U</CLASSIFICATION_TYPE><NORAD_CAT_ID>43255</NORAD_CAT_ID><ELEMENT_SET_NO>999</ELEMENT_SET_NO><REV_AT_EPOCH>33950</REV_AT_EPOCH><BSTAR>.23625E-3</BSTAR><MEAN_MOTION_DOT>.681E-5</MEAN_MOTION_DOT><MEAN_MOTION_DDOT>0</MEAN_MOTION_DDOT></tleParameters></data></segment></body></omm>
<omm id="CCSDS_OMM_VERS" version="2.0">
<header><CREATION_DATE/><ORIGINATOR/></header><body><segment><metadata><OBJECT_NAME>IRIDIUM 142</OBJECT_NAME><OBJECT_ID>2018-030H</OBJECT_ID><CENTER_NAME>EARTH</CENTER_NAME><REF_FRAME>TEME</REF_FRAME><TIME_SYSTEM>UTC</TIME_SYSTEM><MEAN_ELEMENT_THEORY>SGP4</MEAN_ELEMENT_THEORY></metadata><data><meanElements><EPOCH>2024-09-22T07:25:51.704544</EPOCH><MEAN_MOTION>14.34212622</MEAN_MOTION><ECCENTRICITY>.0002561</ECCENTRICITY><INCLINATION>86.4034</INCLINATION><RA_OF_ASC_NODE>194.8615</RA_OF_ASC_NODE><ARG_OF_PERICENTER>91.7133</ARG_OF_PERICENTER><MEAN_ANOMALY>268.4356</MEAN_ANOMALY></meanElements><tleParameters><EPHEMERIS_TYPE>0</EPHEMERIS_TYPE><CLASSIFICATION_TYPE>U</CLASSIFICATION_TYPE><NORAD_CAT_ID>43256</NORAD_CAT_ID><ELEMENT_SET_NO>999</ELEMENT_SET_NO><REV_AT_EPOCH>33942</REV_AT_EPOCH><BSTAR>.22542E-3</BSTAR><MEAN_MOTION_DOT>.651E-5</MEAN_MOTION_DOT><MEAN_MOTION_DDOT>0</MEAN_MOTION_DDOT></tleParameters></data></segment></body></omm>

</ndm>
